{"node_data": {"29978282": {"y": 47.6084779, "x": -122.3306893, "street_count": 3}, "29979598": {"y": 47.6150711, "x": -122.3296923, "street_count": 3}, "30230266": {"y": 47.6083209, "x": -122.331026, "ref": "164", "highway": "motorway_junction", "street_count": 3}, "30279413": {"y": 47.6090021, "x": -122.330885, "street_count": 3}, "30279458": {"y": 47.6049844, "x": -122.3279289, "ref": "165", "highway": "motorway_junction", "street_count": 3}, "30279697": {"y": 47.6084406, "x": -122.331992, "highway": "traffic_signals", "street_count": 5}, "30345009": {"y": 47.6185639, "x": -122.3437825, "highway": "traffic_signals", "street_count": 4}, "30345012": {"y": 47.6185631, "x": -122.3435864, "highway": "traffic_signals", "street_count": 4}, "30345078": {"y": 47.617525, "x": -122.3297178, "highway": "traffic_signals", "street_count": 4}, "30345319": {"y": 47.6166538, "x": -122.3278808, "highway": "traffic_signals", "street_count": 5}, "30345366": {"y": 47.6131341, "x": -122.3300821, "ref": "166", "highway": "motorway_junction", "street_count": 3}, "30345371": {"y": 47.6164476, "x": -122.328335, "street_count": 3}, "30345375": {"y": 47.6171726, "x": -122.3281757, "street_count": 3}, "30345392": {"y": 47.6163592, "x": -122.3286376, "street_count": 3}, "30345462": {"y": 47.6125332, "x": -122.3311604, "highway": "traffic_signals", "street_count": 5}, "30345463": {"y": 47.6127912, "x": -122.3309661, "street_count": 3}, "30885219": {"y": 47.6117471, "x": -122.347042, "street_count": 3}, "53014755": {"y": 47.6109691, "x": -122.3315992, "street_count": 3}, "53017297": {"y": 47.6061206, "x": -122.337541, "highway": "traffic_signals", "street_count": 3}, "53018454": {"y": 47.6120713, "x": -122.3482291, "highway": "traffic_signals", "street_count": 3}, "53045786": {"y": 47.607744, "x": -122.3313384, "highway": "traffic_signals", "street_count": 5}, "53068912": {"y": 47.6163507, "x": -122.32679, "street_count": 3}, "53068916": {"y": 47.6163452, "x": -122.3254951, "street_count": 3}, "53068917": {"y": 47.6163575, "x": -122.3244978, "street_count": 4}, "53068920": {"y": 47.6163758, "x": -122.3234327, "street_count": 4}, "53068921": {"y": 47.6163962, "x": -122.3221635, "street_count": 3}, "53070134": {"y": 47.6133735, "x": -122.3465185, "highway": "traffic_signals", "street_count": 4}, "53070135": {"y": 47.6140301, "x": -122.3456726, "highway": "traffic_signals", "street_count": 4}, "53070136": {"y": 47.6147024, "x": -122.3447995, "highway": "traffic_signals", "street_count": 4}, "53070138": {"y": 47.6153642, "x": -122.3439414, "highway": "traffic_signals", "street_count": 4}, "53070139": {"y": 47.6159934, "x": -122.3431315, "highway": "traffic_signals", "street_count": 4}, "53070140": {"y": 47.6166958, "x": -122.3422208, "highway": "traffic_signals", "street_count": 4}, "53070142": {"y": 47.6173721, "x": -122.3413461, "highway": "traffic_signals", "street_count": 4}, "53070144": {"y": 47.6180335, "x": -122.34049, "highway": "stop", "street_count": 4}, "53070146": {"y": 47.6185454, "x": -122.3398612, "highway": "traffic_signals", "street_count": 4}, "53070500": {"y": 47.6135303, "x": -122.3320329, "highway": "traffic_signals", "street_count": 4}, "53070502": {"y": 47.6145245, "x": -122.3329364, "highway": "traffic_signals", "street_count": 4}, "53070503": {"y": 47.6148131, "x": -122.3331843, "highway": "traffic_signals", "street_count": 4}, "53070504": {"y": 47.615616, "x": -122.3344308, "highway": "traffic_signals", "street_count": 4}, "53070505": {"y": 47.6163879, "x": -122.3357275, "highway": "traffic_signals", "street_count": 4}, "53070507": {"y": 47.6171603, "x": -122.337045, "highway": "stop", "street_count": 4}, "53070509": {"y": 47.6177598, "x": -122.3383398, "highway": "traffic_signals", "street_count": 4}, "53070510": {"y": 47.6185431, "x": -122.3391482, "street_count": 3}, "53070520": {"y": 47.6048538, "x": -122.324104, "highway": "stop", "street_count": 4}, "53070522": {"y": 47.6055624, "x": -122.3247477, "highway": "traffic_signals", "street_count": 4}, "53070524": {"y": 47.6062742, "x": -122.3254044, "highway": "stop", "street_count": 4}, "53070527": {"y": 47.6069932, "x": -122.3260554, "street_count": 4}, "53070528": {"y": 47.6077082, "x": -122.3267127, "street_count": 4}, "53070531": {"y": 47.6084173, "x": -122.3273566, "highway": "traffic_signals", "street_count": 4}, "53070533": {"y": 47.6091256, "x": -122.3280124, "street_count": 4}, "53070534": {"y": 47.6098388, "x": -122.3286781, "highway": "traffic_signals", "street_count": 4}, "53072273": {"y": 47.6131459, "x": -122.3363027, "highway": "traffic_signals", "street_count": 4}, "53072274": {"y": 47.6135929, "x": -122.3351911, "highway": "traffic_signals", "street_count": 4}, "53072275": {"y": 47.6140621, "x": -122.3340552, "highway": "traffic_signals", "street_count": 5}, "53072277": {"y": 47.6154593, "x": -122.3307288, "highway": "traffic_signals", "street_count": 5}, "53072278": {"y": 47.6158304, "x": -122.32979, "street_count": 3}, "53072283": {"y": 47.6171377, "x": -122.3267787, "highway": "traffic_signals", "street_count": 4}, "53073240": {"y": 47.6042227, "x": -122.3207871, "street_count": 3}, "53073244": {"y": 47.6045918, "x": -122.3207915, "highway": "traffic_signals", "street_count": 4}, "53073245": {"y": 47.6052139, "x": -122.32079, "highway": "traffic_signals", "street_count": 3}, "53073246": {"y": 47.60621, "x": -122.3207992, "highway": "traffic_signals", "street_count": 4}, "53073247": {"y": 47.6072341, "x": -122.3207746, "highway": "traffic_signals", "street_count": 5}, "53073248": {"y": 47.6092355, "x": -122.32081, "highway": "traffic_signals", "street_count": 3}, "53073250": {"y": 47.6101221, "x": -122.3208142, "street_count": 3}, "53073251": {"y": 47.6111538, "x": -122.3208162, "highway": "traffic_signals", "street_count": 4}, "53073252": {"y": 47.6114582, "x": -122.3208158, "street_count": 3}, "53073253": {"y": 47.6129732, "x": -122.3208155, "highway": "traffic_signals", "street_count": 4}, "53073254": {"y": 47.6140904, "x": -122.3208285, "highway": "traffic_signals", "street_count": 4}, "53073255": {"y": 47.615259, "x": -122.32083, "highway": "traffic_signals", "street_count": 4}, "53073259": {"y": 47.6175838, "x": -122.3208595, "highway": "traffic_signals", "street_count": 3}, "53073260": {"y": 47.61875, "x": -122.3208473, "highway": "traffic_signals", "street_count": 4}, "53086660": {"y": 47.6116213, "x": -122.346496, "highway": "traffic_signals", "street_count": 4}, "53086661": {"y": 47.611953, "x": -122.3460598, "street_count": 4}, "53086663": {"y": 47.6126065, "x": -122.3452171, "highway": "traffic_signals", "street_count": 4}, "53086664": {"y": 47.613262, "x": -122.3443552, "highway": "traffic_signals", "street_count": 4}, "53086666": {"y": 47.6139301, "x": -122.3435052, "highway": "traffic_signals", "street_count": 4}, "53086667": {"y": 47.6145996, "x": -122.3426342, "highway": "traffic_signals", "street_count": 4}, "53086670": {"y": 47.6152145, "x": -122.3418429, "highway": "traffic_signals", "street_count": 4}, "53086671": {"y": 47.6159305, "x": -122.3409072, "highway": "traffic_signals", "street_count": 4}, "53086673": {"y": 47.6166038, "x": -122.3400508, "highway": "traffic_signals", "street_count": 4}, "53086674": {"y": 47.6172675, "x": -122.3391819, "highway": "traffic_signals", "street_count": 4}, "53086782": {"y": 47.6129814, "x": -122.3244363, "street_count": 3}, "53086784": {"y": 47.6141046, "x": -122.3244701, "highway": "stop", "street_count": 4}, "53086785": {"y": 47.6152375, "x": -122.32448, "highway": "stop", "street_count": 4}, "53086786": {"y": 47.6177489, "x": -122.3245131, "street_count": 3}, "53091442": {"y": 47.6133397, "x": -122.3521676, "street_count": 3}, "53091444": {"y": 47.613918, "x": -122.3514108, "street_count": 4}, "53091447": {"y": 47.6145957, "x": -122.3505414, "street_count": 4}, "53091448": {"y": 47.6152458, "x": -122.3497074, "street_count": 4}, "53091449": {"y": 47.6159231, "x": -122.3488559, "street_count": 4}, "53091450": {"y": 47.6165798, "x": -122.34799, "street_count": 4}, "53091453": {"y": 47.6172396, "x": -122.347109, "highway": "traffic_signals", "street_count": 4}, "53091454": {"y": 47.6178581, "x": -122.346286, "highway": "traffic_signals", "street_count": 4}, "53091455": {"y": 47.6185679, "x": -122.3453925, "ref": "2297", "street_count": 3}, "53098402": {"y": 47.6185503, "x": -122.3234501, "street_count": 4}, "53099320": {"y": 47.618571, "x": -122.3463527, "highway": "traffic_signals", "street_count": 4}, "53099752": {"y": 47.6144573, "x": -122.3298059, "highway": "traffic_signals", "street_count": 4}, "53107464": {"y": 47.618554, "x": -122.3423963, "highway": "traffic_signals", "street_count": 4}, "53108484": {"y": 47.6184974, "x": -122.3267452, "highway": "traffic_signals", "street_count": 4}, "53109128": {"y": 47.6152604, "x": -122.3200336, "street_count": 3}, "53109131": {"y": 47.6175854, "x": -122.3200711, "street_count": 3}, "53110861": {"y": 47.6170891, "x": -122.3278779, "street_count": 3}, "53114220": {"y": 47.6042469, "x": -122.3254496, "street_count": 1}, "53114221": {"y": 47.6053102, "x": -122.3230066, "street_count": 4}, "53114222": {"y": 47.6057823, "x": -122.3218795, "highway": "traffic_signals", "street_count": 4}, "53114263": {"y": 47.6042382, "x": -122.337344, "highway": "traffic_signals", "street_count": 4}, "53114264": {"y": 47.6049427, "x": -122.3379977, "highway": "traffic_signals", "street_count": 4}, "53114266": {"y": 47.6056626, "x": -122.3386452, "street_count": 4}, "53114267": {"y": 47.6063685, "x": -122.339311, "highway": "stop", "street_count": 3}, "53114269": {"y": 47.6073776, "x": -122.3402101, "street_count": 3}, "53114273": {"y": 47.6103443, "x": -122.3436686, "street_count": 3}, "53114276": {"y": 47.6111979, "x": -122.344785, "highway": "traffic_signals", "street_count": 5}, "53114280": {"y": 47.6134935, "x": -122.3486836, "highway": "traffic_signals", "street_count": 4}, "53114282": {"y": 47.6140385, "x": -122.3496002, "highway": "traffic_signals", "street_count": 4}, "53114285": {"y": 47.6151358, "x": -122.351453, "highway": "traffic_signals", "street_count": 4}, "53114287": {"y": 47.6157078, "x": -122.3524178, "street_count": 4}, "53114289": {"y": 47.6162628, "x": -122.3533566, "highway": "traffic_signals", "street_count": 4}, "53114291": {"y": 47.6170488, "x": -122.3546804, "street_count": 3}, "53118263": {"y": 47.6185076, "x": -122.3240097, "street_count": 3}, "53119471": {"y": 47.6090382, "x": -122.330626, "highway": "traffic_signals", "street_count": 4}, "53119474": {"y": 47.6130348, "x": -122.329987, "highway": "traffic_signals", "street_count": 4}, "53128144": {"y": 47.6185838, "x": -122.3489317, "highway": "traffic_signals", "street_count": 4}, "53130103": {"y": 47.618746, "x": -122.3221995, "street_count": 4}, "53135832": {"y": 47.6044432, "x": -122.3368442, "street_count": 3}, "53135833": {"y": 47.6051639, "x": -122.3374718, "street_count": 4}, "53135836": {"y": 47.6058843, "x": -122.3381072, "street_count": 2}, "53142103": {"y": 47.6060838, "x": -122.3282382, "street_count": 3}, "53142108": {"y": 47.6065278, "x": -122.3271726, "street_count": 4}, "53142111": {"y": 47.6074564, "x": -122.3249438, "street_count": 4}, "53142114": {"y": 47.607893, "x": -122.3238935, "street_count": 3}, "53142115": {"y": 47.6083724, "x": -122.3227189, "street_count": 3}, "53142133": {"y": 47.6041943, "x": -122.3327164, "highway": "traffic_signals", "street_count": 4}, "53142136": {"y": 47.6046716, "x": -122.3316087, "highway": "traffic_signals", "street_count": 4}, "53142138": {"y": 47.6051141, "x": -122.3305267, "highway": "traffic_signals", "street_count": 5}, "53142141": {"y": 47.605604, "x": -122.3293327, "street_count": 3}, "53142966": {"y": 47.6092891, "x": -122.3389319, "highway": "traffic_signals", "street_count": 4}, "53142967": {"y": 47.6097652, "x": -122.3378196, "highway": "traffic_signals", "street_count": 4}, "53142968": {"y": 47.6102141, "x": -122.3367371, "highway": "traffic_signals", "street_count": 4}, "53142969": {"y": 47.6106961, "x": -122.3355778, "highway": "traffic_signals", "street_count": 4}, "53142970": {"y": 47.6111517, "x": -122.3344825, "highway": "traffic_signals", "street_count": 4}, "53142971": {"y": 47.6116191, "x": -122.3333583, "highway": "traffic_signals", "street_count": 4}, "53142972": {"y": 47.6120871, "x": -122.3322335, "highway": "traffic_signals", "street_count": 4}, "53142974": {"y": 47.6134803, "x": -122.3289162, "highway": "traffic_signals", "street_count": 4}, "53142978": {"y": 47.6139394, "x": -122.327808, "highway": "traffic_signals", "street_count": 4}, "53144257": {"y": 47.6054068, "x": -122.3368943, "highway": "traffic_signals", "street_count": 4}, "53144260": {"y": 47.6058727, "x": -122.3357869, "highway": "traffic_signals", "street_count": 4}, "53144261": {"y": 47.6063357, "x": -122.3346862, "highway": "traffic_signals", "street_count": 4}, "53144262": {"y": 47.6068008, "x": -122.3335804, "highway": "traffic_signals", "street_count": 4}, "53144265": {"y": 47.6072664, "x": -122.332474, "highway": "traffic_signals", "street_count": 4}, "53144266": {"y": 47.6081976, "x": -122.3302357, "street_count": 4}, "53144267": {"y": 47.608661, "x": -122.3291368, "street_count": 4}, "53144268": {"y": 47.6095874, "x": -122.3269131, "street_count": 3}, "53144271": {"y": 47.6105385, "x": -122.3246427, "street_count": 3}, "53144273": {"y": 47.6109828, "x": -122.32357, "street_count": 4}, "53144275": {"y": 47.6114427, "x": -122.3224689, "street_count": 4}, "53144276": {"y": 47.6119106, "x": -122.3213623, "street_count": 3}, "53144604": {"y": 47.6185847, "x": -122.3528569, "highway": "traffic_signals", "street_count": 4}, "53144733": {"y": 47.6040006, "x": -122.335618, "highway": "traffic_signals", "street_count": 4}, "53144734": {"y": 47.6046928, "x": -122.3362467, "highway": "traffic_signals", "street_count": 4}, "53144737": {"y": 47.606838, "x": -122.3381925, "highway": "traffic_signals", "street_count": 3}, "53144740": {"y": 47.6098432, "x": -122.3408914, "highway": "traffic_signals", "street_count": 3}, "53144742": {"y": 47.6103112, "x": -122.3413171, "highway": "traffic_signals", "street_count": 3}, "53144743": {"y": 47.611069, "x": -122.3426071, "highway": "traffic_signals", "street_count": 4}, "53144744": {"y": 47.6118448, "x": -122.3439224, "highway": "traffic_signals", "street_count": 4}, "53144745": {"y": 47.6141534, "x": -122.3478438, "street_count": 4}, "53144746": {"y": 47.6146899, "x": -122.3487544, "highway": "traffic_signals", "street_count": 4}, "53144747": {"y": 47.61579, "x": -122.3506231, "highway": "traffic_signals", "street_count": 4}, "53144749": {"y": 47.6163523, "x": -122.351568, "street_count": 4}, "53144750": {"y": 47.6169102, "x": -122.3525163, "highway": "traffic_signals", "street_count": 4}, "53144751": {"y": 47.6176898, "x": -122.3538412, "street_count": 4}, "53144752": {"y": 47.6178778, "x": -122.3541698, "street_count": 3}, "53146026": {"y": 47.6185809, "x": -122.3541567, "street_count": 4}, "53146386": {"y": 47.6155926, "x": -122.3542385, "highway": "traffic_signals", "street_count": 4}, "53146388": {"y": 47.6175723, "x": -122.351657, "highway": "traffic_signals", "street_count": 4}, "53146390": {"y": 47.6182311, "x": -122.350802, "highway": "traffic_signals", "street_count": 4}, "53146391": {"y": 47.6185922, "x": -122.3503333, "highway": "traffic_signals", "street_count": 4}, "53147420": {"y": 47.6185889, "x": -122.3514135, "street_count": 3}, "53147424": {"y": 47.6185759, "x": -122.3476152, "highway": "traffic_signals", "street_count": 5}, "53147426": {"y": 47.6185676, "x": -122.3450098, "highway": "traffic_signals", "street_count": 4}, "53147431": {"y": 47.6185547, "x": -122.3415686, "street_count": 4}, "53147432": {"y": 47.6185409, "x": -122.3384897, "highway": "traffic_signals", "street_count": 4}, "53147433": {"y": 47.6185325, "x": -122.335888, "street_count": 3}, "53147434": {"y": 47.6185309, "x": -122.3352839, "street_count": 4}, "53147435": {"y": 47.6185283, "x": -122.3342987, "highway": "traffic_signals", "street_count": 4}, "53147436": {"y": 47.6185263, "x": -122.3330009, "street_count": 3}, "53147440": {"y": 47.6185192, "x": -122.3313886, "street_count": 3}, "53148286": {"y": 47.6117296, "x": -122.341779, "highway": "traffic_signals", "street_count": 4}, "53148287": {"y": 47.6124084, "x": -122.3408973, "highway": "traffic_signals", "street_count": 4}, "53148290": {"y": 47.6130634, "x": -122.3400465, "highway": "traffic_signals", "street_count": 4}, "53148292": {"y": 47.6136909, "x": -122.3392322, "highway": "traffic_signals", "street_count": 4}, "53148294": {"y": 47.6143918, "x": -122.3383323, "highway": "traffic_signals", "street_count": 4}, "53148295": {"y": 47.6148264, "x": -122.337749, "highway": "traffic_signals", "street_count": 4}, "53148297": {"y": 47.6150568, "x": -122.3374463, "highway": "traffic_signals", "street_count": 4}, "53148299": {"y": 47.6157232, "x": -122.336573, "highway": "traffic_signals", "street_count": 4}, "53148302": {"y": 47.6170511, "x": -122.3348682, "highway": "traffic_signals", "street_count": 4}, "53148303": {"y": 47.6177224, "x": -122.3340122, "street_count": 4}, "53155393": {"y": 47.614468, "x": -122.3523592, "highway": "traffic_signals", "street_count": 3}, "53155395": {"y": 47.6164589, "x": -122.3497748, "street_count": 4}, "53155396": {"y": 47.6171294, "x": -122.3489278, "street_count": 4}, "53155398": {"y": 47.6178039, "x": -122.3480716, "highway": "traffic_signals", "street_count": 4}, "53155726": {"y": 47.6060352, "x": -122.3401019, "highway": "traffic_signals", "street_count": 3}, "53155734": {"y": 47.6144471, "x": -122.354031, "highway": "traffic_signals", "street_count": 3}, "53160852": {"y": 47.6041643, "x": -122.328058, "highway": "traffic_signals", "street_count": 4}, "53160854": {"y": 47.6048794, "x": -122.3286935, "highway": "traffic_signals", "street_count": 4}, "53160855": {"y": 47.6062491, "x": -122.3301768, "street_count": 3}, "53160858": {"y": 47.6070218, "x": -122.3306814, "highway": "traffic_signals", "street_count": 4}, "53160861": {"y": 47.6091536, "x": -122.332635, "highway": "traffic_signals", "street_count": 5}, "53160863": {"y": 47.610148, "x": -122.333559, "highway": "traffic_signals", "street_count": 4}, "53160865": {"y": 47.6121367, "x": -122.3353812, "highway": "traffic_signals", "street_count": 4}, "53160869": {"y": 47.6136154, "x": -122.3370367, "highway": "traffic_signals", "street_count": 4}, "53160871": {"y": 47.6139547, "x": -122.3375919, "highway": "traffic_signals", "street_count": 4}, "53160874": {"y": 47.6151578, "x": -122.3396251, "highway": "traffic_signals", "street_count": 4}, "53160878": {"y": 47.6180172, "x": -122.3444336, "highway": "traffic_signals", "street_count": 4}, "53168922": {"y": 47.6152248, "x": -122.3278993, "highway": "traffic_signals", "street_count": 4}, "53168924": {"y": 47.6152241, "x": -122.3268033, "highway": "traffic_signals", "street_count": 4}, "53168927": {"y": 47.6152288, "x": -122.325535, "highway": "stop", "street_count": 4}, "53168930": {"y": 47.6152423, "x": -122.323419, "highway": "stop", "street_count": 4}, "53168932": {"y": 47.6152491, "x": -122.322146, "highway": "traffic_signals", "street_count": 4}, "53184111": {"y": 47.6051575, "x": -122.3351305, "highway": "traffic_signals", "street_count": 4}, "53184112": {"y": 47.6056295, "x": -122.334026, "highway": "traffic_signals", "street_count": 4}, "53184113": {"y": 47.6060865, "x": -122.3329126, "highway": "traffic_signals", "street_count": 4}, "53184114": {"y": 47.6065443, "x": -122.33182, "highway": "traffic_signals", "street_count": 4}, "53184115": {"y": 47.6074864, "x": -122.3295782, "highway": "traffic_signals", "street_count": 4}, "53184116": {"y": 47.6079481, "x": -122.3284765, "highway": "traffic_signals", "street_count": 4}, "53184117": {"y": 47.6088722, "x": -122.3262522, "highway": "traffic_signals", "street_count": 4}, "53184118": {"y": 47.6093391, "x": -122.3251272, "highway": "traffic_signals", "street_count": 4}, "53184119": {"y": 47.6098062, "x": -122.32402, "highway": "traffic_signals", "street_count": 4}, "53184120": {"y": 47.61027, "x": -122.322915, "highway": "traffic_signals", "street_count": 3}, "53184121": {"y": 47.6107272, "x": -122.3218255, "highway": "traffic_signals", "street_count": 4}, "53186030": {"y": 47.6177467, "x": -122.3267649, "street_count": 3}, "53186031": {"y": 47.6177405, "x": -122.3262525, "street_count": 4}, "53186032": {"y": 47.6177471, "x": -122.3255689, "street_count": 3}, "53186033": {"y": 47.6177557, "x": -122.3234628, "street_count": 3}, "53186034": {"y": 47.6175708, "x": -122.3234548, "street_count": 3}, "53187904": {"y": 47.6109565, "x": -122.3404737, "highway": "traffic_signals", "street_count": 4}, "53187905": {"y": 47.6116333, "x": -122.3396012, "highway": "traffic_signals", "street_count": 4}, "53187906": {"y": 47.6129188, "x": -122.3379491, "highway": "traffic_signals", "street_count": 4}, "53187907": {"y": 47.613279, "x": -122.3374748, "highway": "traffic_signals", "street_count": 3}, "53187908": {"y": 47.6142851, "x": -122.3361644, "highway": "traffic_signals", "street_count": 4}, "53187909": {"y": 47.6149542, "x": -122.3352929, "highway": "traffic_signals", "street_count": 4}, "53187910": {"y": 47.6162649, "x": -122.3335788, "highway": "traffic_signals", "street_count": 4}, "53187911": {"y": 47.6169535, "x": -122.332705, "highway": "traffic_signals", "street_count": 4}, "53187912": {"y": 47.6176115, "x": -122.3318627, "highway": "traffic_signals", "street_count": 4}, "53187913": {"y": 47.6182931, "x": -122.3309975, "highway": "traffic_signals", "street_count": 4}, "53187914": {"y": 47.6187296, "x": -122.3304388, "street_count": 3}, "53189614": {"y": 47.6128157, "x": -122.3495132, "street_count": 3}, "53189615": {"y": 47.6133768, "x": -122.3504595, "highway": "traffic_signals", "street_count": 4}, "53189616": {"y": 47.6150276, "x": -122.3533107, "street_count": 4}, "53192313": {"y": 47.6183353, "x": -122.3529962, "street_count": 3}, "53193187": {"y": 47.6129754, "x": -122.322113, "street_count": 3}, "53193188": {"y": 47.6140814, "x": -122.3221283, "highway": "traffic_signals", "street_count": 4}, "53194068": {"y": 47.6154799, "x": -122.3323161, "highway": "traffic_signals", "street_count": 4}, "53194069": {"y": 47.6161843, "x": -122.331421, "highway": "traffic_signals", "street_count": 4}, "53194070": {"y": 47.6168643, "x": -122.3305587, "highway": "traffic_signals", "street_count": 4}, "53200375": {"y": 47.6065823, "x": -122.3364381, "highway": "traffic_signals", "street_count": 4}, "53200376": {"y": 47.6070445, "x": -122.3353207, "highway": "traffic_signals", "street_count": 4}, "53200377": {"y": 47.6075075, "x": -122.3342339, "highway": "traffic_signals", "street_count": 4}, "53200378": {"y": 47.6079696, "x": -122.3331106, "highway": "traffic_signals", "street_count": 4}, "53200379": {"y": 47.6093695, "x": -122.3298023, "highway": "traffic_signals", "street_count": 4}, "53200380": {"y": 47.6103026, "x": -122.3275705, "street_count": 3}, "53200381": {"y": 47.6107703, "x": -122.3264459, "highway": "traffic_signals", "street_count": 4}, "53200382": {"y": 47.6112282, "x": -122.325352, "highway": "stop", "street_count": 4}, "53200383": {"y": 47.6117035, "x": -122.3242246, "street_count": 4}, "53200384": {"y": 47.6121627, "x": -122.323122, "street_count": 4}, "53200538": {"y": 47.6178784, "x": -122.3342926, "highway": "traffic_signals", "street_count": 4}, "53200831": {"y": 47.614102, "x": -122.3268213, "highway": "traffic_signals", "street_count": 4}, "53200832": {"y": 47.6141034, "x": -122.3255171, "highway": "stop", "street_count": 4}, "53200833": {"y": 47.6140941, "x": -122.3234115, "highway": "stop", "street_count": 4}, "53201468": {"y": 47.6148037, "x": -122.3469826, "highway": "traffic_signals", "street_count": 4}, "53203464": {"y": 47.6044575, "x": -122.334488, "highway": "traffic_signals", "street_count": 4}, "53203465": {"y": 47.6072982, "x": -122.3370956, "highway": "traffic_signals", "street_count": 4}, "53203466": {"y": 47.6082891, "x": -122.3380101, "highway": "traffic_signals", "street_count": 4}, "53203467": {"y": 47.6102801, "x": -122.3398417, "highway": "traffic_signals", "street_count": 4}, "53203468": {"y": 47.6124939, "x": -122.3430759, "highway": "traffic_signals", "street_count": 4}, "53203470": {"y": 47.615349, "x": -122.347902, "highway": "traffic_signals", "street_count": 4}, "53203471": {"y": 47.6170082, "x": -122.350729, "street_count": 4}, "53205952": {"y": 47.6087555, "x": -122.3368912, "highway": "traffic_signals", "street_count": 4}, "53205953": {"y": 47.6092063, "x": -122.335805, "highway": "traffic_signals", "street_count": 4}, "53205954": {"y": 47.6096853, "x": -122.3346631, "highway": "traffic_signals", "street_count": 4}, "53205955": {"y": 47.6106056, "x": -122.3324189, "highway": "traffic_signals", "street_count": 4}, "53205957": {"y": 47.6120189, "x": -122.3291048, "street_count": 3}, "53205958": {"y": 47.6124852, "x": -122.3280058, "highway": "traffic_signals", "street_count": 4}, "53207667": {"y": 47.6043909, "x": -122.3298566, "highway": "traffic_signals", "street_count": 5}, "53207669": {"y": 47.6053411, "x": -122.3276092, "highway": "traffic_signals", "street_count": 5}, "53207673": {"y": 47.6058095, "x": -122.3265025, "street_count": 4}, "53207674": {"y": 47.6067422, "x": -122.3243017, "street_count": 4}, "53207676": {"y": 47.6071829, "x": -122.3232447, "street_count": 3}, "53207677": {"y": 47.6076735, "x": -122.322078, "street_count": 4}, "53208938": {"y": 47.6050917, "x": -122.3258526, "highway": "traffic_signals", "street_count": 3}, "53208939": {"y": 47.6072486, "x": -122.3278327, "highway": "stop", "street_count": 4}, "53208941": {"y": 47.6130601, "x": -122.3331627, "highway": "traffic_signals", "street_count": 4}, "53209654": {"y": 47.6178446, "x": -122.3421629, "street_count": 3}, "53209760": {"y": 47.6141856, "x": -122.3279221, "street_count": 3}, "53209761": {"y": 47.6184996, "x": -122.3278818, "highway": "traffic_signals", "street_count": 4}, "53209846": {"y": 47.6043878, "x": -122.3205866, "street_count": 3}, "53209847": {"y": 47.6050574, "x": -122.3212207, "street_count": 3}, "53209848": {"y": 47.6064931, "x": -122.322528, "highway": "traffic_signals", "street_count": 5}, "53209849": {"y": 47.6086189, "x": -122.3244885, "highway": "traffic_signals", "street_count": 4}, "53209850": {"y": 47.6114846, "x": -122.327104, "highway": "traffic_signals", "street_count": 4}, "53212907": {"y": 47.6129865, "x": -122.323386, "street_count": 3}, "53212908": {"y": 47.6100257, "x": -122.3211505, "street_count": 3}, "53213409": {"y": 47.6110241, "x": -122.32821, "street_count": 4}, "53213411": {"y": 47.612405, "x": -122.3248695, "street_count": 4}, "53213413": {"y": 47.6077623, "x": -122.335978, "highway": "traffic_signals", "street_count": 4}, "53213414": {"y": 47.6082149, "x": -122.3348881, "highway": "traffic_signals", "street_count": 4}, "53213415": {"y": 47.6086836, "x": -122.3337566, "highway": "traffic_signals", "street_count": 4}, "53213822": {"y": 47.6107454, "x": -122.338721, "highway": "traffic_signals", "street_count": 4}, "53213823": {"y": 47.6111996, "x": -122.3376326, "highway": "traffic_signals", "street_count": 4}, "53213824": {"y": 47.6116831, "x": -122.336471, "highway": "traffic_signals", "street_count": 4}, "53213825": {"y": 47.6125952, "x": -122.334263, "highway": "traffic_signals", "street_count": 4}, "53217079": {"y": 47.6129851, "x": -122.3255037, "street_count": 3}, "53217080": {"y": 47.6129843, "x": -122.3253849, "street_count": 3}, "53220994": {"y": 47.6131715, "x": -122.3421956, "highway": "traffic_signals", "street_count": 4}, "53220995": {"y": 47.6138297, "x": -122.3413438, "highway": "traffic_signals", "street_count": 4}, "53220996": {"y": 47.6144602, "x": -122.3405283, "highway": "traffic_signals", "street_count": 4}, "53220997": {"y": 47.6158349, "x": -122.3387488, "highway": "traffic_signals", "street_count": 4}, "53221000": {"y": 47.6178253, "x": -122.336172, "highway": "stop", "street_count": 4}, "53221381": {"y": 47.6049096, "x": -122.3333828, "highway": "traffic_signals", "street_count": 4}, "53221382": {"y": 47.6053647, "x": -122.3322713, "highway": "traffic_signals", "street_count": 4}, "53221383": {"y": 47.6058327, "x": -122.3311769, "highway": "traffic_signals", "street_count": 4}, "53221390": {"y": 47.6068115, "x": -122.3288827, "highway": "stop", "street_count": 3}, "53221392": {"y": 47.6081721, "x": -122.3256052, "street_count": 4}, "53221393": {"y": 47.6090909, "x": -122.3233709, "street_count": 4}, "53221908": {"y": 47.6046185, "x": -122.3269834, "highway": "traffic_signals", "street_count": 4}, "53221909": {"y": 47.6060165, "x": -122.3236525, "highway": "traffic_signals", "street_count": 4}, "53221910": {"y": 47.6069559, "x": -122.3214287, "street_count": 4}, "53223115": {"y": 47.6184961, "x": -122.325639, "highway": "traffic_signals", "street_count": 4}, "53229641": {"y": 47.6152964, "x": -122.3378474, "highway": "traffic_signals", "street_count": 4}, "53230128": {"y": 47.6181085, "x": -122.3426914, "street_count": 3}, "53237165": {"y": 47.6154758, "x": -122.3461132, "highway": "traffic_signals", "street_count": 4}, "53237166": {"y": 47.6160155, "x": -122.347033, "highway": "traffic_signals", "street_count": 4}, "53237167": {"y": 47.6176755, "x": -122.3498632, "street_count": 4}, "53243899": {"y": 47.6045912, "x": -122.3223456, "street_count": 4}, "53247236": {"y": 47.6167791, "x": -122.3444472, "highway": "traffic_signals", "street_count": 4}, "53247237": {"y": 47.6173042, "x": -122.3453583, "highway": "traffic_signals", "street_count": 4}, "53247506": {"y": 47.6128121, "x": -122.3511637, "highway": "traffic_signals", "street_count": 3}, "53247507": {"y": 47.6166804, "x": -122.3461696, "highway": "traffic_signals", "street_count": 4}, "53251089": {"y": 47.6161394, "x": -122.3452581, "highway": "traffic_signals", "street_count": 4}, "53252301": {"y": 47.6043971, "x": -122.3228088, "street_count": 1}, "60163298": {"y": 47.6162539, "x": -122.3284111, "street_count": 1}, "60165814": {"y": 47.6174793, "x": -122.3343445, "street_count": 3}, "60167496": {"y": 47.618583, "x": -122.3534391, "street_count": 3}, "60408009": {"y": 47.6184985, "x": -122.3252919, "street_count": 3}, "60408031": {"y": 47.6177485, "x": -122.3253012, "street_count": 3}, "60790852": {"y": 47.6181197, "x": -122.3525825, "street_count": 3}, "335725067": {"y": 47.6124761, "x": -122.3223632, "street_count": 3}, "418825595": {"y": 47.60768, "x": -122.3310739, "street_count": 3}, "418825605": {"y": 47.6052465, "x": -122.3287161, "street_count": 3}, "671838595": {"y": 47.6069309, "x": -122.3297294, "street_count": 3}, "699288180": {"y": 47.611082, "x": -122.3297767, "street_count": 1}, "704993872": {"y": 47.6068993, "x": -122.329076, "street_count": 3}, "775936191": {"y": 47.6165075, "x": -122.3378768, "highway": "traffic_signals", "street_count": 4}, "779404312": {"y": 47.6049475, "x": -122.3293068, "street_count": 3}, "779404314": {"y": 47.6185869, "x": -122.3494467, "street_count": 3}, "779404330": {"y": 47.6183318, "x": -122.3490682, "street_count": 3}, "799990471": {"y": 47.6064645, "x": -122.3207823, "street_count": 3}, "1115816511": {"y": 47.6058192, "x": -122.3295208, "street_count": 3}, "1115816512": {"y": 47.6134367, "x": -122.3303998, "ref": "165B", "highway": "motorway_junction", "street_count": 3}, "1115816560": {"y": 47.6104497, "x": -122.3313947, "ref": "165A", "highway": "motorway_junction", "street_count": 3}, "1134260736": {"y": 47.6123101, "x": -122.3469696, "street_count": 3}, "1178349141": {"y": 47.6078333, "x": -122.3390873, "highway": "traffic_signals", "street_count": 4}, "1178349162": {"y": 47.6076251, "x": -122.339597, "street_count": 1}, "1178349180": {"y": 47.6075988, "x": -122.3396664, "street_count": 1}, "1302848062": {"y": 47.6181311, "x": -122.3384227, "highway": "traffic_signals", "street_count": 3}, "1381587380": {"y": 47.605677, "x": -122.3281243, "street_count": 3}, "1388978404": {"y": 47.6128732, "x": -122.3314382, "street_count": 3}, "1435684559": {"y": 47.6117607, "x": -122.3394366, "street_count": 3}, "1730789485": {"y": 47.6072018, "x": -122.3200938, "street_count": 1}, "1730789642": {"y": 47.6104215, "x": -122.3434562, "street_count": 2}, "1744967578": {"y": 47.6127351, "x": -122.3221029, "street_count": 3}, "1744967580": {"y": 47.6125459, "x": -122.3219357, "street_count": 3}, "1744967586": {"y": 47.6128732, "x": -122.3219805, "street_count": 3}, "1801012013": {"y": 47.6185069, "x": -122.3372085, "highway": "traffic_signals", "street_count": 3}, "1806343847": {"y": 47.6183628, "x": -122.3410933, "street_count": 3}, "1806343880": {"y": 47.6184582, "x": -122.3291106, "street_count": 3}, "1806689325": {"y": 47.6160086, "x": -122.3294585, "street_count": 3}, "1822049869": {"y": 47.6129363, "x": -122.3301524, "street_count": 3}, "1826802045": {"y": 47.618923, "x": -122.3252884, "street_count": 3}, "1826802053": {"y": 47.6169908, "x": -122.3270679, "street_count": 3}, "1827149542": {"y": 47.6129697, "x": -122.3268127, "street_count": 3}, "1827149554": {"y": 47.6158722, "x": -122.3278842, "street_count": 3}, "1840703785": {"y": 47.6128795, "x": -122.3268499, "street_count": 3}, "1841774933": {"y": 47.6090677, "x": -122.3394619, "street_count": 1}, "1855069489": {"y": 47.6185342, "x": -122.3363954, "street_count": 3}, "1867807835": {"y": 47.6185387, "x": -122.3378251, "street_count": 3}, "1884382810": {"y": 47.6175336, "x": -122.3436259, "highway": "traffic_signals", "street_count": 5}, "1884382823": {"y": 47.6166472, "x": -122.3381133, "highway": "traffic_signals", "street_count": 4}, "1884382824": {"y": 47.6163653, "x": -122.3380623, "highway": "traffic_signals", "street_count": 4}, "2458959310": {"y": 47.6113665, "x": -122.3454328, "street_count": 3}, "2458959313": {"y": 47.6115087, "x": -122.3452871, "street_count": 3}, "2476114345": {"y": 47.6185486, "x": -122.3403413, "street_count": 3}, "2481926130": {"y": 47.6121913, "x": -122.3385429, "highway": "traffic_signals", "street_count": 4}, "2481926135": {"y": 47.6123136, "x": -122.3387373, "highway": "traffic_signals", "street_count": 4}, "2481938316": {"y": 47.6185071, "x": -122.3307336, "highway": "traffic_signals", "street_count": 4}, "2706300474": {"y": 47.6081253, "x": -122.3208039, "highway": "traffic_signals", "street_count": 4}, "3400684680": {"y": 47.611524, "x": -122.330179, "street_count": 3}, "3400818394": {"y": 47.6051462, "x": -122.3280669, "street_count": 3}, "3618304999": {"y": 47.6126539, "x": -122.3374401, "highway": "traffic_signals", "street_count": 4}, "3736214292": {"y": 47.6072209, "x": -122.3231514, "street_count": 3}, "3736214293": {"y": 47.6079315, "x": -122.3238011, "street_count": 3}, "3753402835": {"y": 47.6083679, "x": -122.3242633, "street_count": 3}, "4251282204": {"y": 47.6075431, "x": -122.3311558, "street_count": 3}, "4273639244": {"y": 47.6098182, "x": -122.325574, "street_count": 3}, "4273639245": {"y": 47.6103377, "x": -122.3260564, "street_count": 3}, "4273765064": {"y": 47.6181292, "x": -122.3486025, "street_count": 3}, "4446194769": {"y": 47.6053129, "x": -122.3394608, "highway": "traffic_signals", "street_count": 4}, "4458158119": {"y": 47.6046148, "x": -122.3388292, "highway": "traffic_signals", "street_count": 4}, "4917798994": {"y": 47.6113492, "x": -122.339962, "street_count": 2}, "5082514247": {"y": 47.6074347, "x": -122.3414182, "street_count": 2}, "5318135202": {"y": 47.607334, "x": -122.340411, "street_count": 1}, "5320774790": {"y": 47.6070695, "x": -122.341051, "highway": "traffic_signals", "street_count": 3}, "5606261680": {"y": 47.6100658, "x": -122.3257534, "street_count": 3}, "5606261681": {"y": 47.6100324, "x": -122.3258404, "street_count": 3}, "5662021840": {"y": 47.6126773, "x": -122.337468, "street_count": 3}, "5767180633": {"y": 47.6123244, "x": -122.3311524, "street_count": 3}, "5767180634": {"y": 47.6124297, "x": -122.3314093, "street_count": 3}, "5767475122": {"y": 47.6183934, "x": -122.3331684, "street_count": 3}, "5772052236": {"y": 47.6107191, "x": -122.3454379, "highway": "traffic_signals", "street_count": 3}, "6997257717": {"y": 47.6185268, "x": -122.3331797, "street_count": 3}, "7397616878": {"y": 47.6185246, "x": -122.3411628, "street_count": 3}, "7398873806": {"y": 47.6185638, "x": -122.3372072, "highway": "traffic_signals", "street_count": 3}, "8008011922": {"y": 47.618752, "x": -122.3201258, "street_count": 3}, "8179254512": {"y": 47.6149238, "x": -122.3287219, "street_count": 3}, "9020298707": {"y": 47.6159644, "x": -122.3296513, "street_count": 4}, "9173528572": {"y": 47.6163011, "x": -122.325558, "street_count": 3}, "9173528573": {"y": 47.6163472, "x": -122.3256237, "street_count": 3}, "9173528574": {"y": 47.6163873, "x": -122.3255595, "street_count": 3}, "9173534023": {"y": 47.612907, "x": -122.3269606, "street_count": 3}, "9173534043": {"y": 47.6129922, "x": -122.3268629, "street_count": 3}, "9173534044": {"y": 47.6129775, "x": -122.3269426, "street_count": 3}, "9173572642": {"y": 47.6119205, "x": -122.3260564, "street_count": 3}, "9173572643": {"y": 47.6119077, "x": -122.3259652, "street_count": 3}, "9173572644": {"y": 47.6119658, "x": -122.3259479, "street_count": 3}, "9173572645": {"y": 47.6119815, "x": -122.3260316, "street_count": 3}, "9173572665": {"y": 47.6104853, "x": -122.3246599, "street_count": 3}, "9173572666": {"y": 47.6104943, "x": -122.324756, "street_count": 3}, "9173572667": {"y": 47.6105589, "x": -122.3247316, "street_count": 3}, "9452089630": {"y": 47.6184779, "x": -122.3473018, "street_count": 3}, "9452089632": {"y": 47.6180751, "x": -122.3464424, "street_count": 3}, "9452089634": {"y": 47.6179339, "x": -122.3461893, "highway": "traffic_signals", "street_count": 4}, "9452089637": {"y": 47.6173827, "x": -122.3452572, "highway": "traffic_signals", "street_count": 4}, "9452089639": {"y": 47.6168434, "x": -122.344368, "highway": "traffic_signals", "street_count": 4}, "9452089642": {"y": 47.6160586, "x": -122.3430446, "highway": "traffic_signals", "street_count": 4}, "9452089644": {"y": 47.6153035, "x": -122.3417279, "highway": "traffic_signals", "street_count": 4}, "9452089647": {"y": 47.6145304, "x": -122.340437, "highway": "traffic_signals", "street_count": 4}, "9452089650": {"y": 47.6137624, "x": -122.3391383, "highway": "traffic_signals", "street_count": 4}, "9452089653": {"y": 47.6129981, "x": -122.3378418, "highway": "traffic_signals", "street_count": 4}, "9502026783": {"y": 47.6083741, "x": -122.3425328, "street_count": 2}, "9820098725": {"y": 47.6175767, "x": -122.322181, "street_count": 3}, "10597777152": {"y": 47.6184657, "x": -122.343307, "street_count": 1}, "10740258886": {"y": 47.6112874, "x": -122.3461769, "street_count": 3}, "10857146179": {"y": 47.6127225, "x": -122.3473936, "highway": "traffic_signals", "street_count": 4}, "10857146201": {"y": 47.6117642, "x": -122.3462973, "street_count": 1}, "11077903100": {"y": 47.6149844, "x": -122.3318524, "street_count": 3}, "11685314931": {"y": 47.6090713, "x": -122.3447169, "street_count": 1}, "11688215833": {"y": 47.6050358, "x": -122.3392173, "street_count": 3}}, "original_to_new_node_labels": {"29978282": 0, "29979598": 1, "30230266": 2, "30279413": 3, "30279458": 4, "30279697": 5, "30345009": 6, "30345012": 7, "30345078": 8, "30345319": 9, "30345366": 10, "30345371": 11, "30345375": 12, "30345392": 13, "30345462": 14, "30345463": 15, "30885219": 16, "53014755": 17, "53017297": 18, "53018454": 19, "53045786": 20, "53068912": 21, "53068916": 22, "53068917": 23, "53068920": 24, "53068921": 25, "53070134": 26, "53070135": 27, "53070136": 28, "53070138": 29, "53070139": 30, "53070140": 31, "53070142": 32, "53070144": 33, "53070146": 34, "53070500": 35, "53070502": 36, "53070503": 37, "53070504": 38, "53070505": 39, "53070507": 40, "53070509": 41, "53070510": 42, "53070520": 43, "53070522": 44, "53070524": 45, "53070527": 46, "53070528": 47, "53070531": 48, "53070533": 49, "53070534": 50, "53072273": 51, "53072274": 52, "53072275": 53, "53072277": 54, "53072278": 55, "53072283": 56, "53073240": 57, "53073244": 58, "53073245": 59, "53073246": 60, "53073247": 61, "53073248": 62, "53073250": 63, "53073251": 64, "53073252": 65, "53073253": 66, "53073254": 67, "53073255": 68, "53073259": 69, "53073260": 70, "53086660": 71, "53086661": 72, "53086663": 73, "53086664": 74, "53086666": 75, "53086667": 76, "53086670": 77, "53086671": 78, "53086673": 79, "53086674": 80, "53086782": 81, "53086784": 82, "53086785": 83, "53086786": 84, "53091442": 85, "53091444": 86, "53091447": 87, "53091448": 88, "53091449": 89, "53091450": 90, "53091453": 91, "53091454": 92, "53091455": 93, "53098402": 94, "53099320": 95, "53099752": 96, "53107464": 97, "53108484": 98, "53109128": 99, "53109131": 100, "53110861": 101, "53114220": 102, "53114221": 103, "53114222": 104, "53114263": 105, "53114264": 106, "53114266": 107, "53114267": 108, "53114269": 109, "53114273": 110, "53114276": 111, "53114280": 112, "53114282": 113, "53114285": 114, "53114287": 115, "53114289": 116, "53114291": 117, "53118263": 118, "53119471": 119, "53119474": 120, "53128144": 121, "53130103": 122, "53135832": 123, "53135833": 124, "53135836": 125, "53142103": 126, "53142108": 127, "53142111": 128, "53142114": 129, "53142115": 130, "53142133": 131, "53142136": 132, "53142138": 133, "53142141": 134, "53142966": 135, "53142967": 136, "53142968": 137, "53142969": 138, "53142970": 139, "53142971": 140, "53142972": 141, "53142974": 142, "53142978": 143, "53144257": 144, "53144260": 145, "53144261": 146, "53144262": 147, "53144265": 148, "53144266": 149, "53144267": 150, "53144268": 151, "53144271": 152, "53144273": 153, "53144275": 154, "53144276": 155, "53144604": 156, "53144733": 157, "53144734": 158, "53144737": 159, "53144740": 160, "53144742": 161, "53144743": 162, "53144744": 163, "53144745": 164, "53144746": 165, "53144747": 166, "53144749": 167, "53144750": 168, "53144751": 169, "53144752": 170, "53146026": 171, "53146386": 172, "53146388": 173, "53146390": 174, "53146391": 175, "53147420": 176, "53147424": 177, "53147426": 178, "53147431": 179, "53147432": 180, "53147433": 181, "53147434": 182, "53147435": 183, "53147436": 184, "53147440": 185, "53148286": 186, "53148287": 187, "53148290": 188, "53148292": 189, "53148294": 190, "53148295": 191, "53148297": 192, "53148299": 193, "53148302": 194, "53148303": 195, "53155393": 196, "53155395": 197, "53155396": 198, "53155398": 199, "53155726": 200, "53155734": 201, "53160852": 202, "53160854": 203, "53160855": 204, "53160858": 205, "53160861": 206, "53160863": 207, "53160865": 208, "53160869": 209, "53160871": 210, "53160874": 211, "53160878": 212, "53168922": 213, "53168924": 214, "53168927": 215, "53168930": 216, "53168932": 217, "53184111": 218, "53184112": 219, "53184113": 220, "53184114": 221, "53184115": 222, "53184116": 223, "53184117": 224, "53184118": 225, "53184119": 226, "53184120": 227, "53184121": 228, "53186030": 229, "53186031": 230, "53186032": 231, "53186033": 232, "53186034": 233, "53187904": 234, "53187905": 235, "53187906": 236, "53187907": 237, "53187908": 238, "53187909": 239, "53187910": 240, "53187911": 241, "53187912": 242, "53187913": 243, "53187914": 244, "53189614": 245, "53189615": 246, "53189616": 247, "53192313": 248, "53193187": 249, "53193188": 250, "53194068": 251, "53194069": 252, "53194070": 253, "53200375": 254, "53200376": 255, "53200377": 256, "53200378": 257, "53200379": 258, "53200380": 259, "53200381": 260, "53200382": 261, "53200383": 262, "53200384": 263, "53200538": 264, "53200831": 265, "53200832": 266, "53200833": 267, "53201468": 268, "53203464": 269, "53203465": 270, "53203466": 271, "53203467": 272, "53203468": 273, "53203470": 274, "53203471": 275, "53205952": 276, "53205953": 277, "53205954": 278, "53205955": 279, "53205957": 280, "53205958": 281, "53207667": 282, "53207669": 283, "53207673": 284, "53207674": 285, "53207676": 286, "53207677": 287, "53208938": 288, "53208939": 289, "53208941": 290, "53209654": 291, "53209760": 292, "53209761": 293, "53209846": 294, "53209847": 295, "53209848": 296, "53209849": 297, "53209850": 298, "53212907": 299, "53212908": 300, "53213409": 301, "53213411": 302, "53213413": 303, "53213414": 304, "53213415": 305, "53213822": 306, "53213823": 307, "53213824": 308, "53213825": 309, "53217079": 310, "53217080": 311, "53220994": 312, "53220995": 313, "53220996": 314, "53220997": 315, "53221000": 316, "53221381": 317, "53221382": 318, "53221383": 319, "53221390": 320, "53221392": 321, "53221393": 322, "53221908": 323, "53221909": 324, "53221910": 325, "53223115": 326, "53229641": 327, "53230128": 328, "53237165": 329, "53237166": 330, "53237167": 331, "53243899": 332, "53247236": 333, "53247237": 334, "53247506": 335, "53247507": 336, "53251089": 337, "53252301": 338, "60163298": 339, "60165814": 340, "60167496": 341, "60408009": 342, "60408031": 343, "60790852": 344, "335725067": 345, "418825595": 346, "418825605": 347, "671838595": 348, "699288180": 349, "704993872": 350, "775936191": 351, "779404312": 352, "779404314": 353, "779404330": 354, "799990471": 355, "1115816511": 356, "1115816512": 357, "1115816560": 358, "1134260736": 359, "1178349141": 360, "1178349162": 361, "1178349180": 362, "1302848062": 363, "1381587380": 364, "1388978404": 365, "1435684559": 366, "1730789485": 367, "1730789642": 368, "1744967578": 369, "1744967580": 370, "1744967586": 371, "1801012013": 372, "1806343847": 373, "1806343880": 374, "1806689325": 375, "1822049869": 376, "1826802045": 377, "1826802053": 378, "1827149542": 379, "1827149554": 380, "1840703785": 381, "1841774933": 382, "1855069489": 383, "1867807835": 384, "1884382810": 385, "1884382823": 386, "1884382824": 387, "2458959310": 388, "2458959313": 389, "2476114345": 390, "2481926130": 391, "2481926135": 392, "2481938316": 393, "2706300474": 394, "3400684680": 395, "3400818394": 396, "3618304999": 397, "3736214292": 398, "3736214293": 399, "3753402835": 400, "4251282204": 401, "4273639244": 402, "4273639245": 403, "4273765064": 404, "4446194769": 405, "4458158119": 406, "4917798994": 407, "5082514247": 408, "5318135202": 409, "5320774790": 410, "5606261680": 411, "5606261681": 412, "5662021840": 413, "5767180633": 414, "5767180634": 415, "5767475122": 416, "5772052236": 417, "6997257717": 418, "7397616878": 419, "7398873806": 420, "8008011922": 421, "8179254512": 422, "9020298707": 423, "9173528572": 424, "9173528573": 425, "9173528574": 426, "9173534023": 427, "9173534043": 428, "9173534044": 429, "9173572642": 430, "9173572643": 431, "9173572644": 432, "9173572645": 433, "9173572665": 434, "9173572666": 435, "9173572667": 436, "9452089630": 437, "9452089632": 438, "9452089634": 439, "9452089637": 440, "9452089639": 441, "9452089642": 442, "9452089644": 443, "9452089647": 444, "9452089650": 445, "9452089653": 446, "9502026783": 447, "9820098725": 448, "10597777152": 449, "10740258886": 450, "10857146179": 451, "10857146201": 452, "11077903100": 453, "11685314931": 454, "11688215833": 455}, "new_to_original_node_labels": {"0": 29978282, "1": 29979598, "2": 30230266, "3": 30279413, "4": 30279458, "5": 30279697, "6": 30345009, "7": 30345012, "8": 30345078, "9": 30345319, "10": 30345366, "11": 30345371, "12": 30345375, "13": 30345392, "14": 30345462, "15": 30345463, "16": 30885219, "17": 53014755, "18": 53017297, "19": 53018454, "20": 53045786, "21": 53068912, "22": 53068916, "23": 53068917, "24": 53068920, "25": 53068921, "26": 53070134, "27": 53070135, "28": 53070136, "29": 53070138, "30": 53070139, "31": 53070140, "32": 53070142, "33": 53070144, "34": 53070146, "35": 53070500, "36": 53070502, "37": 53070503, "38": 53070504, "39": 53070505, "40": 53070507, "41": 53070509, "42": 53070510, "43": 53070520, "44": 53070522, "45": 53070524, "46": 53070527, "47": 53070528, "48": 53070531, "49": 53070533, "50": 53070534, "51": 53072273, "52": 53072274, "53": 53072275, "54": 53072277, "55": 53072278, "56": 53072283, "57": 53073240, "58": 53073244, "59": 53073245, "60": 53073246, "61": 53073247, "62": 53073248, "63": 53073250, "64": 53073251, "65": 53073252, "66": 53073253, "67": 53073254, "68": 53073255, "69": 53073259, "70": 53073260, "71": 53086660, "72": 53086661, "73": 53086663, "74": 53086664, "75": 53086666, "76": 53086667, "77": 53086670, "78": 53086671, "79": 53086673, "80": 53086674, "81": 53086782, "82": 53086784, "83": 53086785, "84": 53086786, "85": 53091442, "86": 53091444, "87": 53091447, "88": 53091448, "89": 53091449, "90": 53091450, "91": 53091453, "92": 53091454, "93": 53091455, "94": 53098402, "95": 53099320, "96": 53099752, "97": 53107464, "98": 53108484, "99": 53109128, "100": 53109131, "101": 53110861, "102": 53114220, "103": 53114221, "104": 53114222, "105": 53114263, "106": 53114264, "107": 53114266, "108": 53114267, "109": 53114269, "110": 53114273, "111": 53114276, "112": 53114280, "113": 53114282, "114": 53114285, "115": 53114287, "116": 53114289, "117": 53114291, "118": 53118263, "119": 53119471, "120": 53119474, "121": 53128144, "122": 53130103, "123": 53135832, "124": 53135833, "125": 53135836, "126": 53142103, "127": 53142108, "128": 53142111, "129": 53142114, "130": 53142115, "131": 53142133, "132": 53142136, "133": 53142138, "134": 53142141, "135": 53142966, "136": 53142967, "137": 53142968, "138": 53142969, "139": 53142970, "140": 53142971, "141": 53142972, "142": 53142974, "143": 53142978, "144": 53144257, "145": 53144260, "146": 53144261, "147": 53144262, "148": 53144265, "149": 53144266, "150": 53144267, "151": 53144268, "152": 53144271, "153": 53144273, "154": 53144275, "155": 53144276, "156": 53144604, "157": 53144733, "158": 53144734, "159": 53144737, "160": 53144740, "161": 53144742, "162": 53144743, "163": 53144744, "164": 53144745, "165": 53144746, "166": 53144747, "167": 53144749, "168": 53144750, "169": 53144751, "170": 53144752, "171": 53146026, "172": 53146386, "173": 53146388, "174": 53146390, "175": 53146391, "176": 53147420, "177": 53147424, "178": 53147426, "179": 53147431, "180": 53147432, "181": 53147433, "182": 53147434, "183": 53147435, "184": 53147436, "185": 53147440, "186": 53148286, "187": 53148287, "188": 53148290, "189": 53148292, "190": 53148294, "191": 53148295, "192": 53148297, "193": 53148299, "194": 53148302, "195": 53148303, "196": 53155393, "197": 53155395, "198": 53155396, "199": 53155398, "200": 53155726, "201": 53155734, "202": 53160852, "203": 53160854, "204": 53160855, "205": 53160858, "206": 53160861, "207": 53160863, "208": 53160865, "209": 53160869, "210": 53160871, "211": 53160874, "212": 53160878, "213": 53168922, "214": 53168924, "215": 53168927, "216": 53168930, "217": 53168932, "218": 53184111, "219": 53184112, "220": 53184113, "221": 53184114, "222": 53184115, "223": 53184116, "224": 53184117, "225": 53184118, "226": 53184119, "227": 53184120, "228": 53184121, "229": 53186030, "230": 53186031, "231": 53186032, "232": 53186033, "233": 53186034, "234": 53187904, "235": 53187905, "236": 53187906, "237": 53187907, "238": 53187908, "239": 53187909, "240": 53187910, "241": 53187911, "242": 53187912, "243": 53187913, "244": 53187914, "245": 53189614, "246": 53189615, "247": 53189616, "248": 53192313, "249": 53193187, "250": 53193188, "251": 53194068, "252": 53194069, "253": 53194070, "254": 53200375, "255": 53200376, "256": 53200377, "257": 53200378, "258": 53200379, "259": 53200380, "260": 53200381, "261": 53200382, "262": 53200383, "263": 53200384, "264": 53200538, "265": 53200831, "266": 53200832, "267": 53200833, "268": 53201468, "269": 53203464, "270": 53203465, "271": 53203466, "272": 53203467, "273": 53203468, "274": 53203470, "275": 53203471, "276": 53205952, "277": 53205953, "278": 53205954, "279": 53205955, "280": 53205957, "281": 53205958, "282": 53207667, "283": 53207669, "284": 53207673, "285": 53207674, "286": 53207676, "287": 53207677, "288": 53208938, "289": 53208939, "290": 53208941, "291": 53209654, "292": 53209760, "293": 53209761, "294": 53209846, "295": 53209847, "296": 53209848, "297": 53209849, "298": 53209850, "299": 53212907, "300": 53212908, "301": 53213409, "302": 53213411, "303": 53213413, "304": 53213414, "305": 53213415, "306": 53213822, "307": 53213823, "308": 53213824, "309": 53213825, "310": 53217079, "311": 53217080, "312": 53220994, "313": 53220995, "314": 53220996, "315": 53220997, "316": 53221000, "317": 53221381, "318": 53221382, "319": 53221383, "320": 53221390, "321": 53221392, "322": 53221393, "323": 53221908, "324": 53221909, "325": 53221910, "326": 53223115, "327": 53229641, "328": 53230128, "329": 53237165, "330": 53237166, "331": 53237167, "332": 53243899, "333": 53247236, "334": 53247237, "335": 53247506, "336": 53247507, "337": 53251089, "338": 53252301, "339": 60163298, "340": 60165814, "341": 60167496, "342": 60408009, "343": 60408031, "344": 60790852, "345": 335725067, "346": 418825595, "347": 418825605, "348": 671838595, "349": 699288180, "350": 704993872, "351": 775936191, "352": 779404312, "353": 779404314, "354": 779404330, "355": 799990471, "356": 1115816511, "357": 1115816512, "358": 1115816560, "359": 1134260736, "360": 1178349141, "361": 1178349162, "362": 1178349180, "363": 1302848062, "364": 1381587380, "365": 1388978404, "366": 1435684559, "367": 1730789485, "368": 1730789642, "369": 1744967578, "370": 1744967580, "371": 1744967586, "372": 1801012013, "373": 1806343847, "374": 1806343880, "375": 1806689325, "376": 1822049869, "377": 1826802045, "378": 1826802053, "379": 1827149542, "380": 1827149554, "381": 1840703785, "382": 1841774933, "383": 1855069489, "384": 1867807835, "385": 1884382810, "386": 1884382823, "387": 1884382824, "388": 2458959310, "389": 2458959313, "390": 2476114345, "391": 2481926130, "392": 2481926135, "393": 2481938316, "394": 2706300474, "395": 3400684680, "396": 3400818394, "397": 3618304999, "398": 3736214292, "399": 3736214293, "400": 3753402835, "401": 4251282204, "402": 4273639244, "403": 4273639245, "404": 4273765064, "405": 4446194769, "406": 4458158119, "407": 4917798994, "408": 5082514247, "409": 5318135202, "410": 5320774790, "411": 5606261680, "412": 5606261681, "413": 5662021840, "414": 5767180633, "415": 5767180634, "416": 5767475122, "417": 5772052236, "418": 6997257717, "419": 7397616878, "420": 7398873806, "421": 8008011922, "422": 8179254512, "423": 9020298707, "424": 9173528572, "425": 9173528573, "426": 9173528574, "427": 9173534023, "428": 9173534043, "429": 9173534044, "430": 9173572642, "431": 9173572643, "432": 9173572644, "433": 9173572645, "434": 9173572665, "435": 9173572666, "436": 9173572667, "437": 9452089630, "438": 9452089632, "439": 9452089634, "440": 9452089637, "441": 9452089639, "442": 9452089642, "443": 9452089644, "444": 9452089647, "445": 9452089650, "446": 9452089653, "447": 9502026783, "448": 9820098725, "449": 10597777152, "450": 10740258886, "451": 10857146179, "452": 10857146201, "453": 11077903100, "454": 11685314931, "455": 11688215833}, "targets_on_new_node_labels": [411, 316, 330, 326, 361, 346, 171, 155, 133, 63, 25, 274, 292, 396, 314, 212, 113, 296, 282, 317, 289, 230, 267, 182, 49, 4, 324, 427, 425, 358, 287, 437, 168, 272, 250, 67, 455, 16, 294, 116, 450, 195, 416, 344, 433, 137, 90, 379, 263, 431], "depot_on_new_node_labels": 309}